[
    {
        "Altitude(m)": 622205.879078892,
        "Argument of Periapsis(deg)": 0.0,
        "Eccentricity": 0.0,
        "Inclination(deg)": 60.0,
        "Latitude(deg)": -52.16246739836358,
        "Longitude(deg)": -12.299461354979353,
        "Mean Anomaly(deg)": -114.5455,
        "RAAN(deg)": 220.00000000000003,
        "Satellite Name": "Test1 983",
        "Satellite Number": 983,
        "Semi-Major Axis(m)": 6980739.136638005,
        "Time(s)": 0
    },
    {
        "Altitude(m)": 622344.7850275274,
        "Argument of Periapsis(deg)": 0.00010418945913296404,
        "Eccentricity": 0.0,
        "Inclination(deg)": 60.0,
        "Latitude(deg)": -52.52004545347557,
        "Longitude(deg)": -11.518246564292932,
        "Mean Anomaly(deg)": -113.92539385453817,
        "RAAN(deg)": 219.99957995086027,
        "Satellite Name": "Test1 983",
        "Satellite Number": 983,
        "Semi-Major Axis(m)": 6980739.136638005,
        "Time(s)": 10
    },
    {
        "Altitude(m)": 622480.8473151191,
        "Argument of Periapsis(deg)": 0.0002083789182659281,
        "Eccentricity": 0.0,
        "Inclination(deg)": 60.0,
        "Latitude(deg)": -52.871786866441596,
        "Longitude(deg)": -10.723699629830177,
        "Mean Anomaly(deg)": -113.30528770907634,
        "RAAN(deg)": 219.9991599017205,
        "Satellite Name": "Test1 983",
        "Satellite Number": 983,
        "Semi-Major Axis(m)": 6980739.136638005,
        "Time(s)": 20
    },
    {
        "Altitude(m)": 622614.0127105986,
        "Argument of Periapsis(deg)": 0.00031256837739889213,
        "Eccentricity": 0.0,
        "Inclination(deg)": 60.0,
        "Latitude(deg)": -53.217523775770175,
        "Longitude(deg)": -9.915659587052476,
        "Mean Anomaly(deg)": -112.68518156361448,
        "RAAN(deg)": 219.99873985258077,
        "Satellite Name": "Test1 983",
        "Satellite Number": 983,
        "Semi-Major Axis(m)": 6980739.136638005,
        "Time(s)": 30
    },
    {
        "Altitude(m)": 622744.2290931217,
        "Argument of Periapsis(deg)": 0.0004167578365318562,
        "Eccentricity": 0.0,
        "Inclination(deg)": 60.0,
        "Latitude(deg)": -53.557084913117066,
        "Longitude(deg)": -9.093977094937962,
        "Mean Anomaly(deg)": -112.06507541815265,
        "RAAN(deg)": 219.99831980344106,
        "Satellite Name": "Test1 983",
        "Satellite Number": 983,
        "Semi-Major Axis(m)": 6980739.136638005,
        "Time(s)": 40
    },
    {
        "Altitude(m)": 622871.4454743302,
        "Argument of Periapsis(deg)": 0.0005209472956648203,
        "Eccentricity": 0.0,
        "Inclination(deg)": 60.0,
        "Latitude(deg)": -53.8902957260523,
        "Longitude(deg)": -8.258516832491816,
        "Mean Anomaly(deg)": -111.44496927269081,
        "RAAN(deg)": 219.9978997543013,
        "Satellite Name": "Test1 983",
        "Satellite Number": 983,
        "Semi-Major Axis(m)": 6980739.136638005,
        "Time(s)": 50
    },
    {
        "Altitude(m)": 622995.6120200878,
        "Argument of Periapsis(deg)": 0.0006251367547977843,
        "Eccentricity": 0.0,
        "Inclination(deg)": 60.0,
        "Latitude(deg)": -54.2169785248104,
        "Longitude(deg)": -7.409158445987155,
        "Mean Anomaly(deg)": -110.82486312722908,
        "RAAN(deg)": 219.99747970516154,
        "Satellite Name": "Test1 983",
        "Satellite Number": 983,
        "Semi-Major Axis(m)": 6980739.136638005,
        "Time(s)": 60
    },
    {
        "Altitude(m)": 623116.6800717168,
        "Argument of Periapsis(deg)": 0.0007293262139307483,
        "Eccentricity": 0.0,
        "Inclination(deg)": 60.0,
        "Latitude(deg)": -54.53695265464265,
        "Longitude(deg)": -6.545797555447448,
        "Mean Anomaly(deg)": -110.20475698176722,
        "RAAN(deg)": 219.9970596560218,
        "Satellite Name": "Test1 983",
        "Satellite Number": 983,
        "Semi-Major Axis(m)": 6980739.136638005,
        "Time(s)": 70
    },
    {
        "Altitude(m)": 623234.6021667098,
        "Argument of Periapsis(deg)": 0.0008335156730637124,
        "Eccentricity": 0.0,
        "Inclination(deg)": 60.0,
        "Latitude(deg)": -54.850034695345954,
        "Longitude(deg)": -5.668348327601155,
        "Mean Anomaly(deg)": -109.58465083630539,
        "RAAN(deg)": 219.9966396068821,
        "Satellite Name": "Test1 983",
        "Satellite Number": 983,
        "Semi-Major Axis(m)": 6980739.136638005,
        "Time(s)": 80
    },
    {
        "Altitude(m)": 623349.3320589558,
        "Argument of Periapsis(deg)": 0.0009377051321966765,
        "Eccentricity": 0.0,
        "Inclination(deg)": 60.0,
        "Latitude(deg)": -55.156038689470726,
        "Longitude(deg)": -4.776744582507166,
        "Mean Anomaly(deg)": -108.96454469084354,
        "RAAN(deg)": 219.9962195577423,
        "Satellite Name": "Test1 983",
        "Satellite Number": 983,
        "Semi-Major Axis(m)": 6980739.136638005,
        "Time(s)": 90
    },
    {
        "Altitude(m)": 623460.8247383798,
        "Argument of Periapsis(deg)": 0.0010418945913296407,
        "Eccentricity": 0.0,
        "Inclination(deg)": 60.0,
        "Latitude(deg)": -55.45477640061511,
        "Longitude(deg)": -3.870940938171257,
        "Mean Anomaly(deg)": -108.34443854538172,
        "RAAN(deg)": 219.9957995086026,
        "Satellite Name": "Test1 983",
        "Satellite Number": 983,
        "Semi-Major Axis(m)": 6980739.136638005,
        "Time(s)": 100
    },
    {
        "Altitude(m)": 623569.0364500909,
        "Argument of Periapsis(deg)": 0.0011460840504626045,
        "Eccentricity": 0.0,
        "Inclination(deg)": 60.0,
        "Latitude(deg)": -55.746057603083884,
        "Longitude(deg)": -2.9509154958707353,
        "Mean Anomaly(deg)": -107.72433239991986,
        "RAAN(deg)": 219.99537945946284,
        "Satellite Name": "Test1 983",
        "Satellite Number": 983,
        "Semi-Major Axis(m)": 6980739.136638005,
        "Time(s)": 110
    },
    {
        "Altitude(m)": 623673.9247129558,
        "Argument of Periapsis(deg)": 0.0012502735095955685,
        "Eccentricity": 0.0,
        "Inclination(deg)": 60.0,
        "Latitude(deg)": -56.029690404009926,
        "Longitude(deg)": -2.0166710286089047,
        "Mean Anomaly(deg)": -107.10422625445803,
        "RAAN(deg)": 219.99495941032308,
        "Satellite Name": "Test1 983",
        "Satellite Number": 983,
        "Semi-Major Axis(m)": 6980739.136638005,
        "Time(s)": 120
    },
    {
        "Altitude(m)": 623775.448337647,
        "Argument of Periapsis(deg)": 0.0013544629687285324,
        "Eccentricity": 0.0,
        "Inclination(deg)": 60.0,
        "Latitude(deg)": -56.305481598837666,
        "Longitude(deg)": -1.068236172016389,
        "Mean Anomaly(deg)": -106.48412010899628,
        "RAAN(deg)": 219.99453936118334,
        "Satellite Name": "Test1 983",
        "Satellite Number": 983,
        "Semi-Major Axis(m)": 6980739.136638005,
        "Time(s)": 130
    },
    {
        "Altitude(m)": 623873.5674441035,
        "Argument of Periapsis(deg)": 0.0014586524278614966,
        "Eccentricity": 0.0,
        "Inclination(deg)": 60.0,
        "Latitude(deg)": -56.57323706081564,
        "Longitude(deg)": -0.10566811526894224,
        "Mean Anomaly(deg)": -105.86401396353436,
        "RAAN(deg)": 219.99411931204364,
        "Satellite Name": "Test1 983",
        "Satellite Number": 983,
        "Semi-Major Axis(m)": 6980739.136638005,
        "Time(s)": 140
    },
    {
        "Altitude(m)": 623968.2434784609,
        "Argument of Periapsis(deg)": 0.0015628418869944607,
        "Eccentricity": 0.0,
        "Inclination(deg)": 60.0,
        "Latitude(deg)": -56.832762164842634,
        "Longitude(deg)": 0.8709462507601563,
        "Mean Anomaly(deg)": -105.2439078180726,
        "RAAN(deg)": 219.99369926290387,
        "Satellite Name": "Test1 983",
        "Satellite Number": 983,
        "Semi-Major Axis(m)": 6980739.136638005,
        "Time(s)": 150
    },
    {
        "Altitude(m)": 624059.4392293715,
        "Argument of Periapsis(deg)": 0.0016670313461274247,
        "Eccentricity": 0.0,
        "Inclination(deg)": 60.0,
        "Latitude(deg)": -57.083862245684244,
        "Longitude(deg)": 1.8614892339617835,
        "Mean Anomaly(deg)": -104.62380167261077,
        "RAAN(deg)": 219.9932792137641,
        "Satellite Name": "Test1 983",
        "Satellite Number": 983,
        "Semi-Major Axis(m)": 6980739.136638005,
        "Time(s)": 160
    },
    {
        "Altitude(m)": 624147.1188437742,
        "Argument of Periapsis(deg)": 0.0017712208052603888,
        "Eccentricity": 0.0,
        "Inclination(deg)": 60.0,
        "Latitude(deg)": -57.32634309019033,
        "Longitude(deg)": 2.865809797476504,
        "Mean Anomaly(deg)": -104.00369552714892,
        "RAAN(deg)": 219.99285916462438,
        "Satellite Name": "Test1 983",
        "Satellite Number": 983,
        "Semi-Major Axis(m)": 6980739.136638005,
        "Time(s)": 170
    },
    {
        "Altitude(m)": 624231.2478420694,
        "Argument of Periapsis(deg)": 0.001875410264393353,
        "Eccentricity": 0.0,
        "Inclination(deg)": 60.0,
        "Latitude(deg)": -57.56001146271427,
        "Longitude(deg)": 3.8837226196684957,
        "Mean Anomaly(deg)": -103.3835893816871,
        "RAAN(deg)": 219.99243911548467,
        "Satellite Name": "Test1 983",
        "Satellite Number": 983,
        "Semi-Major Axis(m)": 6980739.136638005,
        "Time(s)": 180
    },
    {
        "Altitude(m)": 624311.7931327206,
        "Argument of Periapsis(deg)": 0.0019795997235263173,
        "Eccentricity": 0.0,
        "Inclination(deg)": 60.0,
        "Latitude(deg)": -57.78467566247601,
        "Longitude(deg)": 4.91500726762983,
        "Mean Anomaly(deg)": -102.76348323622524,
        "RAAN(deg)": 219.9920190663449,
        "Satellite Name": "Test1 983",
        "Satellite Number": 983,
        "Semi-Major Axis(m)": 6980739.136638005,
        "Time(s)": 190
    }
]